[Satellite]
VERSION=1.1
NAME=CORVUS BC1
NICKNAME=CORVUS BC1
TLE1=1 42847U 17042Y   20158.10393745  .00000227  00000-0  27462-4 0  9993
TLE2=2 42847  97.5249  42.3408 0008295 323.6446  36.4209 14.92205511157711
STATUS=0
